STARLINK-32378          
1 61064U 24164Q   26188.20381428  .00001933  00000+0  74016-4 0  9994
2 61064  53.1594 255.4292 0001450  85.0554 275.0613 15.31712003101786
STARLINK-32321          
1 61065U 24164R   26188.20111499  .00016330  00000+0  56221-3 0  9998
2 61065  53.1578 256.1171 0001184  75.1907 284.9225 15.30202071101774
STARLINK-32381          
1 61066U 24164S   26188.21164291  .00001256  00000+0  54519-4 0  9998
2 61066  53.1594 256.1823 0001283  96.0096 264.1051 15.30207990101770
STARLINK-32385          
1 61068U 24164U   26188.21316380  .00003559  00000+0  12639-3 0  9992
2 61068  53.1578 255.4887 0001087  73.6620 286.4501 15.31703173101785
STARLINK-32380          
1 61069U 24164V   26188.20848381  .00001673  00000+0  65646-4 0  9995
2 61069  53.1594 255.4577 0001805 117.0003 243.1183 15.31715795101785
STARLINK-32375          
1 61070U 24164W   26187.48581281  .00002359  00000+0  91825-4 0  9999
2 61070  53.1584 259.4724 0000880  76.0053 284.1045 15.30170544101660
CHAMRAN-1               
1 61072U 24165B   26188.52163373  .00002626  00000+0  16182-3 0  9995
2 61072  64.0767 335.2845 0055411 305.7520  53.8449 15.11252071 99732
2024-166B               
1 61180U 24166B   26187.91398767  .00000013  00000+0  82469-6 0  9997
2 61180  96.6765  78.3775 0003844 149.1518 210.9976 15.75422306103847
GSAT0232 (GALILEO 32)   
1 61182U 24167A   26188.16182551  .00000080  00000+0  00000+0 0  9998
2 61182  55.1811 220.7661 0006486 230.3460 117.2781  1.70474080 11210
GSAT0226 (GALILEO 31)   
1 61183U 24167B   26187.44193446  .00000078  00000+0  00000+0 0  9991
2 61183  55.1797 220.7927 0003116 233.2666 123.8786  1.70474095 11175
BEIDOU-3 M25            
1 61186U 24168B   26188.36676912 -.00000064  00000+0  00000+0 0  9997
2 61186  54.4544 301.5420 0003280 293.0034  94.3413  1.86230030 12166
BEIDOU-3 M27            
1 61187U 24168C   26187.57446904 -.00000062  00000+0  00000+0 0  9994
2 61187  54.4506 301.5523 0001069  47.5868 303.5952  1.86230146  9616
JILIN-01 KUANFU 02B 1   
1 61189U 24169A   26188.54103810  .00002918  00000+0  18846-3 0  9993
2 61189  97.5570 277.7493 0002196  10.9017 349.2259 15.09022277 98898
JILIN-01 KUANFU 02B 2   
1 61190U 24169B   26188.52046639  .00003051  00000+0  19701-3 0  9998
2 61190  97.5567 277.1148 0005071 313.1626  46.9178 15.08986905 98893
JILIN-01 KUANFU 02B 3   
1 61191U 24169C   26188.52959620  .00003223  00000+0  20745-3 0  9993
2 61191  97.5561 277.5567 0012521 233.9738 126.0331 15.09023993 98899
JILIN-01 KUANFU 02B 4   
1 61192U 24169D   26188.49827834  .00002481  00000+0  16065-3 0  9996
2 61192  97.5527 277.0560 0013298 188.9518 171.1475 15.09007125 98896
JILIN-01 KUANFU 02B 5   
1 61193U 24169E   26188.48548367  .00002332  00000+0  15117-3 0  9999
2 61193  97.5572 277.8351 0012482 214.4322 145.6099 15.09039469 98899
JILIN-01 KUANFU 02B 6   
1 61194U 24169F   26188.50891443  .00002543  00000+0  16451-3 0  9995
2 61194  97.5557 277.7531 0015061 249.4573 110.5040 15.09002898 98909
TIANQI-29               
1 61195U 24170A   26188.48284359  .00000056  00000+0  12877-3 0  9992
2 61195  44.8580  46.3548 0005690 194.4671 165.5997 13.97707710 91706
TIANQI-30               
1 61196U 24170B   26188.50096990  .00000061  00000+0  13239-3 0  9997
2 61196  44.8595  46.5350 0008037 195.7374 164.3208 13.97704074 91890
TIANQI-31               
1 61197U 24170C   26188.44789010  .00000052  00000+0  12597-3 0  9999
2 61197  44.8631  47.1541 0007650 173.0503 187.0435 13.97709426 91782
TIANQI-32               
1 61198U 24170D   26188.46410477  .00000053  00000+0  12685-3 0  9999
2 61198  44.8616  47.1760 0006944 169.6911 190.4062 13.97701199 87371
STARLINK-11209 [DTC]    
1 61200U 24171A   26188.30842148  .00007516  00000+0  66912-4 0  9995
2 61200  53.1601 306.7832 0001295  75.7216 284.3946 15.69684810104099
STARLINK-11257 [DTC]    
1 61201U 24171B   26188.36717610  .00002039  00000+0  21690-4 0  9996
2 61201  53.1588 306.4276 0001741 112.7789 247.3413 15.69712440103195
STARLINK-11309 [DTC]    
1 61202U 24171C   26188.36227413  .00008690  00000+0  76591-4 0  9993
2 61202  53.1578 306.3943 0000396  66.3277 293.7782 15.69681755103194
STARLINK-11292 [DTC]    
1 61203U 24171D   26188.35737897  .00006587  00000+0  59278-4 0  9991
2 61203  53.1575 306.3614 0001189  68.7074 291.4071 15.69669336103196
STARLINK-11302 [DTC]    
1 61204U 24171E   26188.41614641  .00006679  00000+0  60018-4 0  9996
2 61204  53.1582 306.0154 0000733  53.4085 306.7000 15.69675858103208
STARLINK-11277 [DTC]    
1 61205U 24171F   26188.34266652  .00006657  00000+0  59861-4 0  9994
2 61205  53.1584 306.2629 0001416  78.5901 281.5276 15.69669131103194
STARLINK-11279 [DTC]    
1 61206U 24171G   26188.33774878  .00007897  00000+0  70054-4 0  9992
2 61206  53.1585 306.2312 0000995  94.7723 265.3408 15.69683239103190
STARLINK-11091 [DTC]    
1 61207U 24171H   26188.34757816  .00008148  00000+0  72109-4 0  9990
2 61207  53.1572 306.2967 0001330  94.9750 265.1419 15.69689972103199
