OBJECT_NAME,OBJECT_ID,EPOCH,MEAN_MOTION,ECCENTRICITY,INCLINATION,RA_OF_ASC_NODE,ARG_OF_PERICENTER,MEAN_ANOMALY,EPHEMERIS_TYPE,CLASSIFICATION_TYPE,NORAD_CAT_ID,ELEMENT_SET_NO,REV_AT_EPOCH,BSTAR,MEAN_MOTION_DOT,MEAN_MOTION_DDOT
STARLINK-32378,2024-164Q,2026-07-07T04:53:29.553792,15.31712003,.000145,53.1594,255.4292,85.0554,275.0613,0,U,61064,999,10178,.74016E-4,.1933E-4,0
STARLINK-32321,2024-164R,2026-07-07T04:49:36.335136,15.30202071,.0001184,53.1578,256.1171,75.1907,284.9225,0,U,61065,999,10177,.56221E-3,.1633E-3,0
STARLINK-32381,2024-164S,2026-07-07T05:04:45.947424,15.30207990,.0001283,53.1594,256.1823,96.0096,264.1051,0,U,61066,999,10177,.54519E-4,.1256E-4,0
STARLINK-32385,2024-164U,2026-07-07T05:06:57.352320,15.31703173,.0001087,53.1578,255.4887,73.6620,286.4501,0,U,61068,999,10178,.12639E-3,.3559E-4,0
STARLINK-32380,2024-164V,2026-07-07T05:00:13.001184,15.31715795,.0001805,53.1594,255.4577,117.0003,243.1183,0,U,61069,999,10178,.65646E-4,.1673E-4,0
STARLINK-32375,2024-164W,2026-07-06T11:39:34.226784,15.30170544,.000088,53.1584,259.4724,76.0053,284.1045,0,U,61070,999,10166,.91825E-4,.2359E-4,0
CHAMRAN-1,2024-165B,2026-07-07T12:31:09.154272,15.11252071,.0055411,64.0767,335.2845,305.7520,53.8449,0,U,61072,999,9973,.16182E-3,.2626E-4,0
2024-166B,2024-166B,2026-07-06T21:56:08.534688,15.75422306,.0003844,96.6765,78.3775,149.1518,210.9976,0,U,61180,999,10384,.82469E-6,.13E-6,0
GSAT0232 (GALILEO 32),2024-167A,2026-07-07T03:53:01.724064,1.70474080,.0006486,55.1811,220.7661,230.3460,117.2781,0,U,61182,999,1121,0,.8E-6,0
GSAT0226 (GALILEO 31),2024-167B,2026-07-06T10:36:23.137344,1.70474095,.00031165,55.1797,220.7927,233.2666,123.8786,0,U,61183,999,1117,0,.78E-6,0
BEIDOU-3 M25,2024-168B,2026-07-07T08:48:08.851968,1.86230030,.000328,54.4544,301.5420,293.0034,94.3413,0,U,61186,999,1216,0,-.64E-6,0
BEIDOU-3 M27,2024-168C,2026-07-06T13:47:14.125056,1.86230146,.0001069,54.4506,301.5523,47.5868,303.5952,0,U,61187,999,961,0,-.62E-6,0
JILIN-01 KUANFU 02B 1,2024-169A,2026-07-07T12:59:05.691840,15.09022277,.0002196,97.5570,277.7493,10.9017,349.2259,0,U,61189,999,9889,.18846E-3,.2918E-4,0
JILIN-01 KUANFU 02B 2,2024-169B,2026-07-07T12:29:28.296096,15.08986905,.0005071,97.5567,277.1148,313.1626,46.9178,0,U,61190,999,9889,.19701E-3,.3051E-4,0
JILIN-01 KUANFU 02B 3,2024-169C,2026-07-07T12:42:37.111680,15.09023993,.0012521,97.5561,277.5567,233.9738,126.0331,0,U,61191,999,9889,.20745E-3,.3223E-4,0
JILIN-01 KUANFU 02B 4,2024-169D,2026-07-07T11:57:31.248576,15.09007125,.0013298,97.5527,277.0560,188.9518,171.1475,0,U,61192,999,9889,.16065E-3,.2481E-4,0
JILIN-01 KUANFU 02B 5,2024-169E,2026-07-07T11:39:05.789088,15.09039469,.0012482,97.5572,277.8351,214.4322,145.6099,0,U,61193,999,9889,.15117E-3,.2332E-4,0
JILIN-01 KUANFU 02B 6,2024-169F,2026-07-07T12:12:50.206752,15.09002898,.0015061,97.5557,277.7531,249.4573,110.5040,0,U,61194,999,9890,.16451E-3,.2543E-4,0
TIANQI-29,2024-170A,2026-07-07T11:35:17.686176,13.97707710,.000569,44.8580,46.3548,194.4671,165.5997,0,U,61195,999,9170,.12877E-3,.56E-6,0
TIANQI-30,2024-170B,2026-07-07T12:01:23.799360,13.97704074,.0008037,44.8595,46.5350,195.7374,164.3208,0,U,61196,999,9189,.13239E-3,.61E-6,0
TIANQI-31,2024-170C,2026-07-07T10:44:57.704640,13.97709426,.000765,44.8631,47.1541,173.0503,187.0435,0,U,61197,999,9178,.12597E-3,.52E-6,0
TIANQI-32,2024-170D,2026-07-07T11:08:18.652128,13.97701199,.0006944,44.8616,47.1760,169.6911,190.4062,0,U,61198,999,8737,.12685E-3,.53E-6,0
STARLINK-11209 [DTC],2024-171A,2026-07-07T07:24:07.615872,15.69684810,.0001295,53.1601,306.7832,75.7216,284.3946,0,U,61200,999,10409,.66912E-4,.7516E-4,0
STARLINK-11257 [DTC],2024-171B,2026-07-07T08:48:44.015040,15.69712440,.0001741,53.1588,306.4276,112.7789,247.3413,0,U,61201,999,10319,.2169E-4,.2039E-4,0
STARLINK-11309 [DTC],2024-171C,2026-07-07T08:41:40.484832,15.69681755,.0000396,53.1578,306.3943,66.3277,293.7782,0,U,61202,999,10319,.76591E-4,.869E-4,0
STARLINK-11292 [DTC],2024-171D,2026-07-07T08:34:37.543008,15.69669336,.0001189,53.1575,306.3614,68.7074,291.4071,0,U,61203,999,10319,.59278E-4,.6587E-4,0
STARLINK-11302 [DTC],2024-171E,2026-07-07T09:59:15.049824,15.69675858,.0000733,53.1582,306.0154,53.4085,306.7000,0,U,61204,999,10320,.60018E-4,.6679E-4,0
STARLINK-11277 [DTC],2024-171F,2026-07-07T08:13:26.387328,15.69669131,.0001416,53.1584,306.2629,78.5901,281.5276,0,U,61205,999,10319,.59861E-4,.6657E-4,0
STARLINK-11279 [DTC],2024-171G,2026-07-07T08:06:21.494592,15.69683239,.0000995,53.1585,306.2312,94.7723,265.3408,0,U,61206,999,10319,.70054E-4,.7897E-4,0
STARLINK-11091 [DTC],2024-171H,2026-07-07T08:20:30.753024,15.69689972,.000133,53.1572,306.2967,94.9750,265.1419,0,U,61207,999,10319,.72109E-4,.8148E-4,0
